[{"OBJECT_NAME":"STARLINK-35722","OBJECT_ID":"2025-244N","EPOCH":"2026-03-09T16:56:13.108992","MEAN_MOTION":15.31300028,"ECCENTRICITY":0.00091815,"INCLINATION":53.16,"RA_OF_ASC_NODE":229.7194,"ARG_OF_PERICENTER":146.9205,"MEAN_ANOMALY":213.2373,"EPHEMERIS_TYPE":0,"CLASSIFICATION_TYPE":"U","NORAD_CAT_ID":66218,"ELEMENT_SET_NO":999,"REV_AT_EPOCH":2166,"BSTAR":0.001827358,"MEAN_MOTION_DOT":0.00056123,"MEAN_MOTION_DDOT":0},{"OBJECT_NAME":"CERISE","OBJECT_ID":"1995-033B","EPOCH":"2026-03-09T23:11:27.589056","MEAN_MOTION":15.32047731,"ECCENTRICITY":0.00057118,"INCLINATION":98.325,"RA_OF_ASC_NODE":273.5192,"ARG_OF_PERICENTER":211.8754,"MEAN_ANOMALY":148.214,"EPHEMERIS_TYPE":0,"CLASSIFICATION_TYPE":"U","NORAD_CAT_ID":23606,"ELEMENT_SET_NO":999,"REV_AT_EPOCH":66468,"BSTAR":0.00062940675,"MEAN_MOTION_DOT":0.00019422,"MEAN_MOTION_DDOT":0}]
